OBJECT_NAME,OBJECT_ID,EPOCH,MEAN_MOTION,ECCENTRICITY,INCLINATION,RA_OF_ASC_NODE,ARG_OF_PERICENTER,MEAN_ANOMALY,EPHEMERIS_TYPE,CLASSIFICATION_TYPE,NORAD_CAT_ID,ELEMENT_SET_NO,REV_AT_EPOCH,BSTAR,MEAN_MOTION_DOT,MEAN_MOTION_DDOT
COSMOS 2251 DEB,1993-036BSE,2024-05-31T10:15:44.830080,14.70404216,0.0017274,74.0443,42.8196,201.7866,158.2573,0,U,38190,999,66800,0.0040687,0.00024744,0
COSMOS 2251 DEB,1993-036BSM,2024-05-26T20:41:33.971136,14.46667484,0.0186569,73.9531,1.7524,7.3035,353.077,0,U,38197,999,77511,0.0025599,0.00011481,0
COSMOS 2251 DEB,1993-036BSP,2024-05-06T19:52:21.093888,13.63132234,0.0373736,73.9552,301.9532,344.2836,14.692,0,U,38199,999,53046,0.00050166,6.07e-06,0
COSMOS 2251 DEB,1993-036BSY,2024-06-01T13:34:36.009984,14.59131439,0.0012309,74.017,87.5453,285.6528,249.8207,0,U,38208,999,62933,0.0020984,9.876e-05,0
COSMOS 2251 DEB,1993-036BTC,2024-05-25T14:26:01.615776,14.71559037,0.0105293,74.0554,101.9979,317.2135,42.0874,0,U,38212,999,73251,0.00072505,4.882e-05,0
COSMOS 2251 DEB,1993-036BTD,2024-05-15T01:46:02.781120,14.74914976,0.0018263,74.0411,65.3241,227.4731,132.4902,0,U,38213,999,51985,0.0061678,0.00041751,0
COSMOS 2251 DEB,1993-036BTL,2024-05-31T19:01:24.685248,14.61485996,0.0012646,74.0278,86.8888,254.3228,105.6544,0,U,38220,999,77224,0.0025155,0.00012479,0
COSMOS 2251 DEB,1993-036BTP,2024-05-25T17:57:12.274272,14.28876286,0.0097165,74.0129,141.8771,21.8497,156.4973,0,U,38479,999,56574,0.0032681,8.662e-05,0
COSMOS 2251 DEB,1993-036BTR,2024-05-27T14:09:50.650848,13.90529793,0.0242046,73.9349,259.4312,314.0732,44.0688,0,U,38481,999,51205,0.00096026,1.489e-05,0
COSMOS 2251 DEB,1993-036BTT,2024-05-30T17:51:59.805216,14.234488,0.0121614,74.2643,292.1497,204.3689,155.1681,0,U,38483,999,55478,0.0016896,4.12e-05,0
COSMOS 2251 DEB,1993-036BTV,2024-05-30T20:07:19.144128,14.79138074,0.0028188,74.0096,208.8871,130.2,230.165,0,U,38485,999,9460,0.003014,0.00022534,0
COSMOS 2251 DEB,1993-036BTW,2024-06-01T09:26:37.459968,14.50939123,0.0037372,73.9626,202.2385,109.1143,262.4605,0,U,38486,999,67258,0.0020859,8.296e-05,0
COSMOS 2251 DEB,1993-036BTX,2024-05-27T14:00:37.745280,14.8115187,0.0055171,73.9971,99.1473,41.5629,318.9721,0,U,38487,999,71604,0.0016065,0.00012812,0
COSMOS 2251 DEB,1993-036BTY,2024-05-21T23:33:54.077760,14.63801124,0.0064929,74.0486,245.102,135.8095,344.4741,0,U,39109,999,56815,0.0013722,7.359e-05,0
COSMOS 2251 DEB,1993-036BTZ,2024-06-01T11:29:56.078592,14.67613402,0.0101851,73.96,71.4661,76.4094,40.7833,0,U,39110,999,54265,0.00060017,3.655e-05,0
COSMOS 2251 DEB,1993-036BUA,2024-05-18T14:54:57.734784,14.64012633,0.0019684,74.0249,100.0015,281.9394,77.9567,0,U,39111,999,639,0.0068678,0.00036272,0
COSMOS 2251 DEB,1993-036BUC,2024-05-31T17:22:13.071360,14.72933587,0.0057758,74.0023,167.2038,105.3619,255.3946,0,U,39546,999,71782,0.0011159,7.323e-05,0
COSMOS 2251 DEB,1993-036BUD,2024-05-28T11:27:49.202784,14.64533754,0.0010459,74.0178,53.8102,252.0017,283.6046,0,U,39547,999,63475,0.0017608,9.328e-05,0
COSMOS 2251 DEB,1993-036BUJ,2024-05-17T10:49:01.775136,14.91658276,0.0015209,74.0192,203.5732,159.7098,212.9954,0,U,39552,999,56025,0.0039197,0.0003968,0
COSMOS 2251 DEB,1993-036BUK,2024-05-26T14:06:21.680352,13.95950748,0.0211619,74.0288,226.2081,129.8066,232.1909,0,U,39553,999,67718,0.0021855,3.589e-05,0
COSMOS 2251 DEB,1993-036BUL,2024-06-01T09:32:10.023072,14.71680349,0.001526,74.0295,302.9256,210.8713,180.5358,0,U,39554,999,56060,0.0025169,0.00015718,0
COSMOS 2251 DEB,1993-036BUN,2024-05-19T01:18:37.297440,14.44838094,0.0172433,73.9353,255.4726,136.0972,225.4039,0,U,39583,999,53460,0.0046911,0.00019611,0
COSMOS 2251 DEB,1993-036BUQ,2024-05-28T02:52:54.448896,14.55989253,0.0070209,74.0426,292.2406,197.404,162.4718,0,U,39585,999,54309,0.00040845,1.827e-05,0
COSMOS 2251 DEB,1993-036BUR,2024-05-27T06:52:47.702208,14.19143812,0.0102468,74.0103,160.1048,64.67,309.4443,0,U,39586,999,52958,0.00073076,1.587e-05,0
COSMOS 2251 DEB,1993-036BUT,2024-05-25T23:35:50.252928,14.6128838,0.005813,74.1196,251.6336,323.1505,160.3215,0,U,39588,999,53866,0.0023659,0.00011952,0
COSMOS 2251 DEB,1993-036BUV,2024-05-08T02:09:41.404320,15.18459342,0.0023188,74.0002,352.3421,163.749,353.0992,0,U,39590,999,54231,0.0083108,0.00176594,0
COSMOS 2251 DEB,1993-036BUW,2024-05-28T10:37:22.145952,14.38991645,0.0028313,74.023,209.5907,100.2071,273.8943,0,U,39591,999,53665,0.00047844,1.457e-05,0
COSMOS 2251 DEB,1993-036BUX,2024-05-27T10:35:56.041440,14.39006671,0.0015902,74.0309,212.6222,73.903,286.3874,0,U,40218,999,53761,0.00040485,1.225e-05,0
COSMOS 2251 DEB,1993-036BVC,2024-05-18T10:47:09.015360,14.60501533,0.0024276,73.9535,143.4252,74.9841,74.4516,0,U,40223,999,50895,0.0037933,0.00018502,0
COSMOS 2251 DEB,1993-036BVD,2024-05-26T15:53:48.153696,14.82828955,0.009638,73.9897,258.0788,337.5362,83.9263,0,U,40224,999,62598,0.0019016,0.00016703,0
