COSMOS 2251 DEB         
1 38190U 93036BSE 24152.42760220  .00024744  00000+0  40687-2 0  9996
2 38190  74.0443  42.8196 0017274 201.7866 158.2573 14.70404216668006
COSMOS 2251 DEB         
1 38197U 93036BSM 24147.86219874  .00011481  00000+0  25599-2 0  9998
2 38197  73.9531   1.7524 0186569   7.3035 353.0770 14.46667484775116
COSMOS 2251 DEB         
1 38199U 93036BSP 24127.82802192  .00000607  00000+0  50166-3 0  9992
2 38199  73.9552 301.9532 0373736 344.2836  14.6920 13.63132234530463
COSMOS 2251 DEB         
1 38208U 93036BSY 24153.56569456  .00009876  00000+0  20984-2 0  9997
2 38208  74.0170  87.5453 0012309 285.6528 249.8207 14.59131439629330
COSMOS 2251 DEB         
1 38212U 93036BTC 24146.60140759  .00004882  00000+0  72505-3 0  9999
2 38212  74.0554 101.9979 0105293 317.2135  42.0874 14.71559037732516
COSMOS 2251 DEB         
1 38213U 93036BTD 24136.07364330  .00041751  00000+0  61678-2 0  9997
2 38213  74.0411  65.3241 0018263 227.4731 132.4902 14.74914976519854
COSMOS 2251 DEB         
1 38220U 93036BTL 24152.79264682  .00012479  00000+0  25155-2 0  9996
2 38220  74.0278  86.8888 0012646 254.3228 105.6544 14.61485996772246
COSMOS 2251 DEB         
1 38479U 93036BTP 24146.74805873  .00008662  00000+0  32681-2 0  9994
2 38479  74.0129 141.8771 0097165  21.8497 156.4973 14.28876286565748
COSMOS 2251 DEB         
1 38481U 93036BTR 24148.59016957  .00001489  00000+0  96026-3 0  9993
2 38481  73.9349 259.4312 0242046 314.0732  44.0688 13.90529793741083
COSMOS 2251 DEB         
1 38483U 93036BTT 24151.74444219  .00004120  00000+0  16896-2 0  9993
2 38483  74.2643 292.1497 0121614 204.3689 155.1681 14.23448800554785
COSMOS 2251 DEB         
1 38485U 93036BTV 24151.83841602  .00022534  00000+0  30140-2 0  9999
2 38485  74.0096 208.8871 0028188 130.2000 230.1650 14.79138074 94603
COSMOS 2251 DEB         
1 38486U 93036BTW 24153.39348912  .00008296  00000+0  20859-2 0  9994
2 38486  73.9626 202.2385 0037372 109.1143 262.4605 14.50939123672587
COSMOS 2251 DEB         
1 38487U 93036BTX 24148.58377020  .00012812  00000+0  16065-2 0  9995
2 38487  73.9971  99.1473 0055171  41.5629 318.9721 14.81151870583561
COSMOS 2251 DEB         
1 39109U 93036BTY 24142.98187590  .00007359  00000+0  13722-2 0  9993
2 39109  74.0486 245.1020 0064929 135.8095 344.4741 14.63801124568150
COSMOS 2251 DEB         
1 39110U 93036BTZ 24153.47912128  .00003655  00000+0  60017-3 0  9999
2 39110  73.9600  71.4661 0101851  76.4094  40.7833 14.67613402542653
COSMOS 2251 DEB         
1 39111U 93036BUA 24139.62150156  .00036272  00000+0  68678-2 0  9997
2 39111  74.0249 100.0015 0019684 281.9394  77.9567 14.64012633  6393
COSMOS 2251 DEB         
1 39546U 93036BUC 24152.72376240  .00007323  00000+0  11159-2 0  9996
2 39546  74.0023 167.2038 0057758 105.3619 255.3946 14.72933587717827
COSMOS 2251 DEB         
1 39547U 93036BUD 24149.47765281  .00009328  00000+0  17608-2 0  9994
2 39547  74.0178  53.8102 0010459 252.0017 283.6046 14.64533754634758
COSMOS 2251 DEB         
1 39552U 93036BUJ 24138.45071499  .00039680  00000+0  39197-2 0  9998
2 39552  74.0192 203.5732 0015209 159.7098 212.9954 14.91658276560256
COSMOS 2251 DEB         
1 39553U 93036BUK 24147.58775093  .00003589  00000+0  21855-2 0  9995
2 39553  74.0288 226.2081 0211619 129.8066 232.1909 13.95950748677185
COSMOS 2251 DEB         
1 39554U 93036BUL 24153.39733823  .00015718  00000+0  25169-2 0  9996
2 39554  74.0295 302.9256 0015260 210.8713 180.5358 14.71680349560608
COSMOS 2251 DEB         
1 39583U 93036BUN 24140.05459835  .00019611  00000+0  46911-2 0  9999
2 39583  73.9353 255.4726 0172433 136.0972 225.4039 14.44838094534607
COSMOS 2251 DEB         
1 39585U 93036BUQ 24149.12007464  .00001827  00000+0  40845-3 0  9996
2 39585  74.0426 292.2406 0070209 197.4040 162.4718 14.55989253543094
COSMOS 2251 DEB         
1 39586U 93036BUR 24148.28666322  .00001587  00000+0  73076-3 0  9992
2 39586  74.0103 160.1048 0102468  64.6700 309.4443 14.19143812529582
COSMOS 2251 DEB         
1 39588U 93036BUT 24146.98322052  .00011952  00000+0  23659-2 0  9996
2 39588  74.1196 251.6336 0058130 323.1505 160.3215 14.61288380538662
COSMOS 2251 DEB         
1 39590U 93036BUV 24129.09006255  .00176594  00000+0  83108-2 0  9995
2 39590  74.0002 352.3421 0023188 163.7490 353.0992 15.18459342542311
COSMOS 2251 DEB         
1 39591U 93036BUW 24149.44261743  .00001457  00000+0  47844-3 0  9995
2 39591  74.0230 209.5907 0028313 100.2071 273.8943 14.38991645536656
COSMOS 2251 DEB         
1 40218U 93036BUX 24148.44162085  .00001225  00000+0  40485-3 0  9998
2 40218  74.0309 212.6222 0015902  73.9030 286.3874 14.39006671537613
COSMOS 2251 DEB         
1 40223U 93036BVC 24139.44940990  .00018502  00000+0  37933-2 0  9992
2 40223  73.9535 143.4252 0024276  74.9841  74.4516 14.60501533508952
COSMOS 2251 DEB         
1 40224U 93036BVD 24147.66236289  .00016703  00000+0  19016-2 0  9998
2 40224  73.9897 258.0788 0096380 337.5362  83.9263 14.82828955625983
